[{"OBJECT_NAME":"STARLINK-3576","OBJECT_ID":"2022-022AH","EPOCH":"2026-03-09T04:31:24.254688","MEAN_MOTION":15.08833975,"ECCENTRICITY":0.00014607,"INCLINATION":53.2199,"RA_OF_ASC_NODE":1.5536,"ARG_OF_PERICENTER":93.4769,"MEAN_ANOMALY":266.639,"EPHEMERIS_TYPE":0,"CLASSIFICATION_TYPE":"U","NORAD_CAT_ID":51883,"ELEMENT_SET_NO":999,"REV_AT_EPOCH":22316,"BSTAR":1.2565327e-5,"MEAN_MOTION_DOT":-8.8e-7,"MEAN_MOTION_DDOT":0},{"OBJECT_NAME":"JILIN-01 KUANFU 02B 5","OBJECT_ID":"2024-169E","EPOCH":"2026-03-09T22:46:28.718400","MEAN_MOTION":15.09244096,"ECCENTRICITY":0.00111722,"INCLINATION":97.556,"RA_OF_ASC_NODE":160.0628,"ARG_OF_PERICENTER":294.0678,"MEAN_ANOMALY":65.9381,"EPHEMERIS_TYPE":0,"CLASSIFICATION_TYPE":"U","NORAD_CAT_ID":61193,"ELEMENT_SET_NO":999,"REV_AT_EPOCH":8086,"BSTAR":0.00034816655,"MEAN_MOTION_DOT":5.486e-5,"MEAN_MOTION_DDOT":0}]
